[{"OBJECT_NAME":"STARLINK-4074","OBJECT_ID":"2022-053Y","EPOCH":"2026-03-09T10:41:39.958368","MEAN_MOTION":15.08837037,"ECCENTRICITY":0.00013095,"INCLINATION":53.2169,"RA_OF_ASC_NODE":145.3257,"ARG_OF_PERICENTER":94.5415,"MEAN_ANOMALY":265.5727,"EPHEMERIS_TYPE":0,"CLASSIFICATION_TYPE":"U","NORAD_CAT_ID":52678,"ELEMENT_SET_NO":999,"REV_AT_EPOCH":21113,"BSTAR":1.0773696e-5,"MEAN_MOTION_DOT":-1.16e-6,"MEAN_MOTION_DDOT":0},{"OBJECT_NAME":"FENGYUN 1C DEB","OBJECT_ID":"1999-025AVL","EPOCH":"2026-03-06T12:53:29.086080","MEAN_MOTION":14.83381217,"ECCENTRICITY":0.01434433,"INCLINATION":98.8652,"RA_OF_ASC_NODE":274.6705,"ARG_OF_PERICENTER":90.518,"MEAN_ANOMALY":301.133,"EPHEMERIS_TYPE":0,"CLASSIFICATION_TYPE":"U","NORAD_CAT_ID":30826,"ELEMENT_SET_NO":999,"REV_AT_EPOCH":1528,"BSTAR":0.00060190522,"MEAN_MOTION_DOT":5.85e-5,"MEAN_MOTION_DDOT":0}]
